{
  "type": "FeatureCollection",
  "features": [
    {
      "type": "Feature",
      "properties": {
        "norad_id": 41581,
        "name": "INTELSAT 31 (IS-31)",
        "group": "intelsat",
        "lat": -0.019057349635913906,
        "lon": -100.84354092310807,
        "alt_km": 35780.164493652934,
        "timestamp": "2025-12-17T17:50:18.919931+00:00",
        "meta_object_name": "INTELSAT 31 (IS-31)",
        "meta_object_id": "2016-035A",
        "meta_epoch": "2025-12-16T09:29:38.777280",
        "meta_mean_motion": 1.00273672,
        "meta_eccentricity": 0.00019671,
        "meta_inclination": 0.0195,
        "meta_ra_of_asc_node": 272.5093,
        "meta_arg_of_pericenter": 297.3574,
        "meta_mean_anomaly": 282.7801,
        "meta_ephemeris_type": 0,
        "meta_classification_type": "U",
        "meta_norad_cat_id": 41581,
        "meta_element_set_no": 999,
        "meta_rev_at_epoch": 3485,
        "meta_bstar": 0,
        "meta_mean_motion_dot": -1.28e-06,
        "meta_mean_motion_ddot": 0,
        "tle_line1": "1 41581U 16035A   25350.39558770 -.00000128  00000+0  00000+0 0  9993",
        "tle_line2": "2 41581   0.0195 272.5093 0001967 297.3574 282.7801  1.00273672 34850"
      },
      "geometry": {
        "type": "Point",
        "coordinates": [
          -100.84354092310807,
          -0.019057349635913906
        ]
      }
    },
    {
      "type": "Feature",
      "properties": {
        "norad_id": 41747,
        "name": "INTELSAT 36 (IS-36)",
        "group": "intelsat",
        "lat": 0.03394917151107326,
        "lon": 62.67869613015068,
        "alt_km": 35786.45341861646,
        "timestamp": "2025-12-17T17:50:18.919943+00:00",
        "meta_object_name": "INTELSAT 36 (IS-36)",
        "meta_object_id": "2016-053A",
        "meta_epoch": "2025-12-17T05:05:24.912960",
        "meta_mean_motion": 1.00271156,
        "meta_eccentricity": 0.00011816,
        "meta_inclination": 0.012,
        "meta_ra_of_asc_node": 4.1631,
        "meta_arg_of_pericenter": 326.1928,
        "meta_mean_anomaly": 260.5738,
        "meta_ephemeris_type": 0,
        "meta_classification_type": "U",
        "meta_norad_cat_id": 41747,
        "meta_element_set_no": 999,
        "meta_rev_at_epoch": 3412,
        "meta_bstar": 0,
        "meta_mean_motion_dot": 0,
        "meta_mean_motion_ddot": 0,
        "tle_line1": "1 41747U 16053A   25351.21209390  .00000000  00000+0  00000+0 0  9998",
        "tle_line2": "2 41747   0.0120   4.1631 0001181 326.1928 260.5738  1.00271156 34129"
      },
      "geometry": {
        "type": "Point",
        "coordinates": [
          62.67869613015068,
          0.03394917151107326
        ]
      }
    },
    {
      "type": "Feature",
      "properties": {
        "norad_id": 41945,
        "name": "INTELSAT 32E (IS-32E)",
        "group": "intelsat",
        "lat": -0.03290038793881042,
        "lon": -48.999926481920916,
        "alt_km": 35785.9242989021,
        "timestamp": "2025-12-17T17:50:18.919955+00:00",
        "meta_object_name": "INTELSAT 32E (IS-32E)",
        "meta_object_id": "2017-007B",
        "meta_epoch": "2025-12-16T04:35:28.228416",
        "meta_mean_motion": 1.00271613,
        "meta_eccentricity": 5.242e-05,
        "meta_inclination": 0.0304,
        "meta_ra_of_asc_node": 75.3547,
        "meta_arg_of_pericenter": 315.6867,
        "meta_mean_anomaly": 79.7377,
        "meta_ephemeris_type": 0,
        "meta_classification_type": "U",
        "meta_norad_cat_id": 41945,
        "meta_element_set_no": 999,
        "meta_rev_at_epoch": 3239,
        "meta_bstar": 0,
        "meta_mean_motion_dot": -2.46e-06,
        "meta_mean_motion_ddot": 0,
        "tle_line1": "1 41945U 17007B   25350.19129894 -.00000246  00000+0  00000+0 0  9997",
        "tle_line2": "2 41945   0.0304  75.3547 0000524 315.6867  79.7377  1.00271613 32398"
      },
      "geometry": {
        "type": "Point",
        "coordinates": [
          -48.999926481920916,
          -0.03290038793881042
        ]
      }
    },
    {
      "type": "Feature",
      "properties": {
        "norad_id": 42818,
        "name": "INTELSAT 35E (IS-35E)",
        "group": "intelsat",
        "lat": -0.0298830610310614,
        "lon": -40.30176825686455,
        "alt_km": 35781.61970574587,
        "timestamp": "2025-12-17T17:50:18.919967+00:00",
        "meta_object_name": "INTELSAT 35E (IS-35E)",
        "meta_object_id": "2017-041A",
        "meta_epoch": "2025-12-17T04:36:05.220576",
        "meta_mean_motion": 1.00270164,
        "meta_eccentricity": 0.00018455,
        "meta_inclination": 0.0255,
        "meta_ra_of_asc_node": 3.0137,
        "meta_arg_of_pericenter": 266.2143,
        "meta_mean_anomaly": 211.3684,
        "meta_ephemeris_type": 0,
        "meta_classification_type": "U",
        "meta_norad_cat_id": 42818,
        "meta_element_set_no": 999,
        "meta_rev_at_epoch": 3099,
        "meta_bstar": 0,
        "meta_mean_motion_dot": 0,
        "meta_mean_motion_ddot": 0,
        "tle_line1": "1 42818U 17041A   25351.19172709  .00000000  00000+0  00000+0 0  9996",
        "tle_line2": "2 42818   0.0255   3.0137 0001845 266.2143 211.3684  1.00270164 30990"
      },
      "geometry": {
        "type": "Point",
        "coordinates": [
          -40.30176825686455,
          -0.0298830610310614
        ]
      }
    },
    {
      "type": "Feature",
      "properties": {
        "norad_id": 42950,
        "name": "INTELSAT 37E (IS-37E)",
        "group": "intelsat",
        "lat": 0.002703490787683824,
        "lon": -23.784678408751343,
        "alt_km": 35783.71945618823,
        "timestamp": "2025-12-17T17:50:18.919978+00:00",
        "meta_object_name": "INTELSAT 37E (IS-37E)",
        "meta_object_id": "2017-059A",
        "meta_epoch": "2025-12-17T04:40:49.766880",
        "meta_mean_motion": 1.0027127,
        "meta_eccentricity": 0.00029492,
        "meta_inclination": 0.0152,
        "meta_ra_of_asc_node": 325.4284,
        "meta_arg_of_pericenter": 292.3787,
        "meta_mean_anomaly": 240.4762,
        "meta_ephemeris_type": 0,
        "meta_classification_type": "U",
        "meta_norad_cat_id": 42950,
        "meta_element_set_no": 999,
        "meta_rev_at_epoch": 3024,
        "meta_bstar": 0,
        "meta_mean_motion_dot": -1.16e-06,
        "meta_mean_motion_ddot": 0,
        "tle_line1": "1 42950U 17059A   25351.19502045 -.00000116  00000+0  00000+0 0  9991",
        "tle_line2": "2 42950   0.0152 325.4284 0002949 292.3787 240.4762  1.00271270 30244"
      },
      "geometry": {
        "type": "Point",
        "coordinates": [
          -23.784678408751343,
          0.002703490787683824
        ]
      }
    },
    {
      "type": "Feature",
      "properties": {
        "norad_id": 43632,
        "name": "AZERSPACE 2 (IS-38)",
        "group": "intelsat",
        "lat": 0.035823809773473485,
        "lon": 39.30698966223346,
        "alt_km": 35788.9762581037,
        "timestamp": "2025-12-17T17:50:18.919990+00:00",
        "meta_object_name": "AZERSPACE 2 (IS-38)",
        "meta_object_id": "2018-074A",
        "meta_epoch": "2025-12-17T04:58:48.045792",
        "meta_mean_motion": 1.00272024,
        "meta_eccentricity": 0.00011885,
        "meta_inclination": 0.0178,
        "meta_ra_of_asc_node": 345.7999,
        "meta_arg_of_pericenter": 286.5784,
        "meta_mean_anomaly": 293.5224,
        "meta_ephemeris_type": 0,
        "meta_classification_type": "U",
        "meta_norad_cat_id": 43632,
        "meta_element_set_no": 999,
        "meta_rev_at_epoch": 2662,
        "meta_bstar": 0,
        "meta_mean_motion_dot": 1.61e-06,
        "meta_mean_motion_ddot": 0,
        "tle_line1": "1 43632U 18074A   25351.20750053  .00000161  00000+0  00000+0 0  9992",
        "tle_line2": "2 43632   0.0178 345.7999 0001188 286.5784 293.5224  1.00272024 26621"
      },
      "geometry": {
        "type": "Point",
        "coordinates": [
          39.30698966223346,
          0.035823809773473485
        ]
      }
    },
    {
      "type": "Feature",
      "properties": {
        "norad_id": 43633,
        "name": "HORIZONS-3E",
        "group": "intelsat",
        "lat": -0.02314326589151915,
        "lon": 163.15078867640176,
        "alt_km": 35789.188212163404,
        "timestamp": "2025-12-17T17:50:18.920001+00:00",
        "meta_object_name": "HORIZONS-3E",
        "meta_object_id": "2018-074B",
        "meta_epoch": "2025-12-16T14:09:40.218048",
        "meta_mean_motion": 1.00269891,
        "meta_eccentricity": 8.37e-05,
        "meta_inclination": 0.0492,
        "meta_ra_of_asc_node": 188.1186,
        "meta_arg_of_pericenter": 112.8726,
        "meta_mean_anomaly": 165.8874,
        "meta_ephemeris_type": 0,
        "meta_classification_type": "U",
        "meta_norad_cat_id": 43633,
        "meta_element_set_no": 999,
        "meta_rev_at_epoch": 2651,
        "meta_bstar": 0,
        "meta_mean_motion_dot": -7e-08,
        "meta_mean_motion_ddot": 0,
        "tle_line1": "1 43633U 18074B   25350.59004882 -.00000007  00000+0  00000+0 0  9996",
        "tle_line2": "2 43633   0.0492 188.1186 0000837 112.8726 165.8874  1.00269891 26513"
      },
      "geometry": {
        "type": "Point",
        "coordinates": [
          163.15078867640176,
          -0.02314326589151915
        ]
      }
    }
  ]
}